{"type": "FeatureCollection", "features": [{"type": "Feature", "properties": {"id": 1, "object_type": "restriction", "restriction_type": "oks"}, "geometry": {"type": "MultiPolygon", "coordinates": [[[[37.410732166, 55.665853459], [37.411494929, 55.665863334], [37.411458539, 55.666761532], [37.410695757, 55.666751657], [37.410732166, 55.665853459]]]]}}, {"type": "Feature", "properties": {"id": 2, "object_type": "restriction", "restriction_type": "oks"}, "geometry": {"type": "MultiPolygon", "coordinates": [[[[37.41168562, 55.665865802], [37.412448385, 55.665875672], [37.412412016, 55.66677387], [37.411649234, 55.666764], [37.41168562, 55.665865802]]]]}}, {"type": "Feature", "properties": {"id": 3, "object_type": "restriction", "restriction_type": "oks"}, "geometry": {"type": "MultiPolygon", "coordinates": [[[[37.410679009, 55.667164827], [37.411441798, 55.667174703], [37.411405404, 55.668072901], [37.410642597, 55.668063025], [37.410679009, 55.667164827]]]]}}, {"type": "Feature", "properties": {"id": 4, "object_type": "restriction", "restriction_type": "oks"}, "geometry": {"type": "MultiPolygon", "coordinates": [[[[37.411632495, 55.667177171], [37.412395285, 55.667187041], [37.412358913, 55.668085239], [37.411596106, 55.668075369], [37.411632495, 55.667177171]]]]}}, {"type": "Feature", "properties": {"id": 5, "object_type": "restriction", "restriction_type": "oks"}, "geometry": {"type": "MultiPolygon", "coordinates": [[[[37.410607128, 55.668545726], [37.411083888, 55.668551899], [37.411049978, 55.669388565], [37.410573208, 55.669382392], [37.410607128, 55.668545726]]]]}}, {"type": "Feature", "properties": {"id": 6, "object_type": "restriction", "restriction_type": "oks"}, "geometry": {"type": "MultiPolygon", "coordinates": [[[[37.411243436, 55.668538456], [37.411720196, 55.668544627], [37.411687273, 55.669357284], [37.411210503, 55.669351113], [37.411243436, 55.668538456]]]]}}, {"type": "Feature", "properties": {"id": 7, "object_type": "restriction", "restriction_type": "oks"}, "geometry": {"type": "MultiPolygon", "coordinates": [[[[37.411881725, 55.668482298], [37.412358484, 55.668488466], [37.41232374, 55.669346411], [37.41184697, 55.669340243], [37.411881725, 55.668482298]]]]}}, {"type": "Feature", "properties": {"id": 8, "object_type": "restriction", "restriction_type": "oks"}, "geometry": {"type": "MultiPolygon", "coordinates": [[[[37.410605195, 55.669770011], [37.412258015, 55.669791404], [37.412220181, 55.67072553], [37.410567321, 55.670704136], [37.410605195, 55.669770011]]]]}}, {"type": "Feature", "properties": {"id": 9, "object_type": "restriction", "restriction_type": "oks"}, "geometry": {"type": "MultiPolygon", "coordinates": [[[[37.410552026, 55.671081379], [37.412204901, 55.671102773], [37.412167064, 55.672036898], [37.410514149, 55.672015503], [37.410552026, 55.671081379]]]]}}, {"type": "Feature", "properties": {"id": 10, "object_type": "restriction", "restriction_type": "oks"}, "geometry": {"type": "MultiPolygon", "coordinates": [[[[37.413034796, 55.665921652], [37.413511525, 55.665927816], [37.413477318, 55.666773178], [37.413000579, 55.666767014], [37.413034796, 55.665921652]]]]}}, {"type": "Feature", "properties": {"id": 11, "object_type": "restriction", "restriction_type": "oks"}, "geometry": {"type": "MultiPolygon", "coordinates": [[[[37.41366971, 55.665947772], [37.414146439, 55.665953934], [37.414111981, 55.666805854], [37.413635241, 55.666799693], [37.41366971, 55.665947772]]]]}}, {"type": "Feature", "properties": {"id": 12, "object_type": "restriction", "restriction_type": "oks"}, "geometry": {"type": "MultiPolygon", "coordinates": [[[[37.41430527, 55.665957928], [37.414782, 55.665964087], [37.414752473, 55.666694381], [37.414275734, 55.666688222], [37.41430527, 55.665957928]]]]}}, {"type": "Feature", "properties": {"id": 13, "object_type": "restriction", "restriction_type": "oks"}, "geometry": {"type": "MultiPolygon", "coordinates": [[[[37.413031671, 55.667177299], [37.414684384, 55.667198658], [37.414646611, 55.668132786], [37.412993859, 55.668111425], [37.413031671, 55.667177299]]]]}}, {"type": "Feature", "properties": {"id": 14, "object_type": "restriction", "restriction_type": "oks"}, "geometry": {"type": "MultiPolygon", "coordinates": [[[[37.412930642, 55.668494733], [37.413407401, 55.668500897], [37.413371073, 55.669398556], [37.412894302, 55.669392392], [37.412930642, 55.668494733]]]]}}, {"type": "Feature", "properties": {"id": 15, "object_type": "restriction", "restriction_type": "oks"}, "geometry": {"type": "MultiPolygon", "coordinates": [[[[37.413563557, 55.66857127], [37.414040318, 55.668577432], [37.414006288, 55.669418616], [37.413529517, 55.669412454], [37.413563557, 55.66857127]]]]}}, {"type": "Feature", "properties": {"id": 16, "object_type": "restriction", "restriction_type": "oks"}, "geometry": {"type": "MultiPolygon", "coordinates": [[[[37.414199988, 55.668560956], [37.414676749, 55.668567116], [37.414644204, 55.669371925], [37.414167433, 55.669365766], [37.414199988, 55.668560956]]]]}}, {"type": "Feature", "properties": {"id": 17, "object_type": "restriction", "restriction_type": "oks"}, "geometry": {"type": "MultiPolygon", "coordinates": [[[[37.412892989, 55.669817591], [37.41365583, 55.669827453], [37.413619483, 55.670725651], [37.412856624, 55.670715789], [37.412892989, 55.669817591]]]]}}, {"type": "Feature", "properties": {"id": 18, "object_type": "restriction", "restriction_type": "oks"}, "geometry": {"type": "MultiPolygon", "coordinates": [[[[37.413846541, 55.669829918], [37.414609383, 55.669839774], [37.414573058, 55.670737973], [37.413810198, 55.670728116], [37.413846541, 55.669829918]]]]}}, {"type": "Feature", "properties": {"id": 19, "object_type": "restriction", "restriction_type": "oks"}, "geometry": {"type": "MultiPolygon", "coordinates": [[[[37.412839896, 55.67112896], [37.413602763, 55.671138822], [37.413566413, 55.67203702], [37.412803529, 55.672027157], [37.412839896, 55.67112896]]]]}}, {"type": "Feature", "properties": {"id": 20, "object_type": "restriction", "restriction_type": "oks"}, "geometry": {"type": "MultiPolygon", "coordinates": [[[[37.41379348, 55.671141287], [37.414556348, 55.671151144], [37.41452002, 55.672049343], [37.413757134, 55.672039486], [37.41379348, 55.671141287]]]]}}, {"type": "Feature", "properties": {"id": 21, "object_type": "restriction", "restriction_type": "oks"}, "geometry": {"type": "MultiPolygon", "coordinates": [[[[37.415404827, 55.665895907], [37.417057488, 55.665917234], [37.417019774, 55.666851363], [37.415367073, 55.666830034], [37.415404827, 55.665895907]]]]}}, {"type": "Feature", "properties": {"id": 22, "object_type": "restriction", "restriction_type": "oks"}, "geometry": {"type": "MultiPolygon", "coordinates": [[[[37.415319317, 55.667224832], [37.416082109, 55.667234679], [37.416045821, 55.668132879], [37.415283012, 55.668123031], [37.415319317, 55.667224832]]]]}}, {"type": "Feature", "properties": {"id": 23, "object_type": "restriction", "restriction_type": "oks"}, "geometry": {"type": "MultiPolygon", "coordinates": [[[[37.416272807, 55.66723714], [37.4170356, 55.667246981], [37.416999334, 55.668145181], [37.416236524, 55.66813534], [37.416272807, 55.66723714]]]]}}, {"type": "Feature", "properties": {"id": 24, "object_type": "restriction", "restriction_type": "oks"}, "geometry": {"type": "MultiPolygon", "coordinates": [[[[37.415266311, 55.668536203], [37.416029128, 55.66854605], [37.415992838, 55.66944425], [37.415230002, 55.669434402], [37.415266311, 55.668536203]]]]}}, {"type": "Feature", "properties": {"id": 25, "object_type": "restriction", "restriction_type": "oks"}, "geometry": {"type": "MultiPolygon", "coordinates": [[[[37.416219833, 55.668548512], [37.416982651, 55.668558353], [37.416946382, 55.669456553], [37.416183546, 55.669446711], [37.416219833, 55.668548512]]]]}}, {"type": "Feature", "properties": {"id": 26, "object_type": "restriction", "restriction_type": "oks"}, "geometry": {"type": "MultiPolygon", "coordinates": [[[[37.415245811, 55.66983002], [37.416898638, 55.669851351], [37.416860914, 55.670785479], [37.415208048, 55.670764147], [37.415245811, 55.66983002]]]]}}, {"type": "Feature", "properties": {"id": 27, "object_type": "restriction", "restriction_type": "oks"}, "geometry": {"type": "MultiPolygon", "coordinates": [[[[37.415192797, 55.671141391], [37.416845679, 55.671162722], [37.416807952, 55.67209685], [37.415155031, 55.672075517], [37.415192797, 55.671141391]]]]}}, {"type": "Feature", "properties": {"id": 28, "object_type": "restriction", "restriction_type": "oks"}, "geometry": {"type": "MultiPolygon", "coordinates": [[[[37.417724909, 55.665925841], [37.419377573, 55.665947138], [37.419339914, 55.666881267], [37.417687211, 55.66685997], [37.417724909, 55.665925841]]]]}}, {"type": "Feature", "properties": {"id": 29, "object_type": "restriction", "restriction_type": "oks"}, "geometry": {"type": "MultiPolygon", "coordinates": [[[[37.417639478, 55.667254768], [37.418402271, 55.667264601], [37.418366037, 55.668162802], [37.417603226, 55.668152969], [37.417639478, 55.667254768]]]]}}, {"type": "Feature", "properties": {"id": 30, "object_type": "restriction", "restriction_type": "oks"}, "geometry": {"type": "MultiPolygon", "coordinates": [[[[37.41859297, 55.667267058], [37.419355764, 55.667276885], [37.419319551, 55.668175086], [37.418556739, 55.668165259], [37.41859297, 55.667267058]]]]}}, {"type": "Feature", "properties": {"id": 31, "object_type": "restriction", "restriction_type": "oks"}, "geometry": {"type": "MultiPolygon", "coordinates": [[[[37.417567682, 55.668639642], [37.418044445, 55.668645789], [37.418012774, 55.669430637], [37.417536002, 55.669424491], [37.417567682, 55.668639642]]]]}}, {"type": "Feature", "properties": {"id": 32, "object_type": "restriction", "restriction_type": "oks"}, "geometry": {"type": "MultiPolygon", "coordinates": [[[[37.418205356, 55.668598492], [37.418682119, 55.668604635], [37.418649329, 55.669417546], [37.418172557, 55.669411402], [37.418205356, 55.668598492]]]]}}, {"type": "Feature", "properties": {"id": 33, "object_type": "restriction", "restriction_type": "oks"}, "geometry": {"type": "MultiPolygon", "coordinates": [[[[37.418840284, 55.668625415], [37.419317047, 55.668631557], [37.419283473, 55.669464241], [37.4188067, 55.669458099], [37.418840284, 55.668625415]]]]}}, {"type": "Feature", "properties": {"id": 34, "object_type": "restriction", "restriction_type": "oks"}, "geometry": {"type": "MultiPolygon", "coordinates": [[[[37.417533616, 55.669877513], [37.41829646, 55.669887347], [37.41826022, 55.670785547], [37.417497358, 55.670775713], [37.417533616, 55.669877513]]]]}}, {"type": "Feature", "properties": {"id": 35, "object_type": "restriction", "restriction_type": "oks"}, "geometry": {"type": "MultiPolygon", "coordinates": [[[[37.418487172, 55.669889804], [37.419250017, 55.669899632], [37.419213798, 55.670797833], [37.418450935, 55.670788005], [37.418487172, 55.669889804]]]]}}, {"type": "Feature", "properties": {"id": 36, "object_type": "restriction", "restriction_type": "oks"}, "geometry": {"type": "MultiPolygon", "coordinates": [[[[37.417480678, 55.671188885], [37.418243548, 55.671198719], [37.418207305, 55.672096919], [37.417444417, 55.672087085], [37.417480678, 55.671188885]]]]}}, {"type": "Feature", "properties": {"id": 37, "object_type": "restriction", "restriction_type": "oks"}, "geometry": {"type": "MultiPolygon", "coordinates": [[[[37.418434266, 55.671201177], [37.419197136, 55.671211005], [37.419160915, 55.672109205], [37.418398027, 55.672099377], [37.418434266, 55.671201177]]]]}}, {"type": "Feature", "properties": {"id": 38, "object_type": "restriction", "restriction_type": "oks"}, "geometry": {"type": "MultiPolygon", "coordinates": [[[[37.420044996, 55.665955732], [37.421697663, 55.665976997], [37.421660059, 55.666911127], [37.420007353, 55.666889861], [37.420044996, 55.665955732]]]]}}, {"type": "Feature", "properties": {"id": 39, "object_type": "restriction", "restriction_type": "oks"}, "geometry": {"type": "MultiPolygon", "coordinates": [[[[37.419959643, 55.667284661], [37.420722438, 55.667294479], [37.420686256, 55.668192681], [37.419923444, 55.668182862], [37.419959643, 55.667284661]]]]}}, {"type": "Feature", "properties": {"id": 40, "object_type": "restriction", "restriction_type": "oks"}, "geometry": {"type": "MultiPolygon", "coordinates": [[[[37.420913137, 55.667296933], [37.421675932, 55.667306745], [37.421639772, 55.668204947], [37.420876959, 55.668195135], [37.420913137, 55.667296933]]]]}}, {"type": "Feature", "properties": {"id": 41, "object_type": "restriction", "restriction_type": "oks"}, "geometry": {"type": "MultiPolygon", "coordinates": [[[[37.419886871, 55.668695774], [37.420363635, 55.668701911], [37.420334707, 55.669419855], [37.419857934, 55.669413717], [37.419886871, 55.668695774]]]]}}, {"type": "Feature", "properties": {"id": 42, "object_type": "restriction", "restriction_type": "oks"}, "geometry": {"type": "MultiPolygon", "coordinates": [[[[37.420525744, 55.668624843], [37.421002507, 55.668630978], [37.420971765, 55.669394254], [37.420494992, 55.669388119], [37.420525744, 55.668624843]]]]}}, {"type": "Feature", "properties": {"id": 43, "object_type": "restriction", "restriction_type": "oks"}, "geometry": {"type": "MultiPolygon", "coordinates": [[[[37.42116235, 55.668610135], [37.421639113, 55.668616267], [37.421604413, 55.669478157], [37.421127639, 55.669472024], [37.42116235, 55.668610135]]]]}}, {"type": "Feature", "properties": {"id": 44, "object_type": "restriction", "restriction_type": "oks"}, "geometry": {"type": "MultiPolygon", "coordinates": [[[[37.419853936, 55.669907409], [37.420616782, 55.669917228], [37.420580594, 55.670815429], [37.419817731, 55.67080561], [37.419853936, 55.669907409]]]]}}, {"type": "Feature", "properties": {"id": 45, "object_type": "restriction", "restriction_type": "oks"}, "geometry": {"type": "MultiPolygon", "coordinates": [[[[37.420807493, 55.669919682], [37.42157034, 55.669929495], [37.421534174, 55.670827697], [37.42077131, 55.670817883], [37.420807493, 55.669919682]]]]}}, {"type": "Feature", "properties": {"id": 46, "object_type": "restriction", "restriction_type": "oks"}, "geometry": {"type": "MultiPolygon", "coordinates": [[[[37.419801076, 55.671218782], [37.420563947, 55.671228602], [37.420527757, 55.672126803], [37.419764868, 55.672116983], [37.419801076, 55.671218782]]]]}}, {"type": "Feature", "properties": {"id": 47, "object_type": "restriction", "restriction_type": "oks"}, "geometry": {"type": "MultiPolygon", "coordinates": [[[[37.420754665, 55.671231056], [37.421517537, 55.671240869], [37.421481369, 55.672139071], [37.420718479, 55.672129257], [37.420754665, 55.671231056]]]]}}, {"type": "Feature", "properties": {"id": 48, "object_type": "oks_connection_point", "flow_tph": 6.81}, "geometry": {"type": "Point", "coordinates": [37.418427341, 55.669008019]}}, {"type": "Feature", "properties": {"id": 49, "object_type": "oks_connection_point", "flow_tph": 9.35}, "geometry": {"type": "Point", "coordinates": [37.416000365, 55.671619123]}}, {"type": "Feature", "properties": {"id": 50, "object_type": "oks_connection_point", "flow_tph": 20.83}, "geometry": {"type": "Point", "coordinates": [37.411042202, 55.667618865]}}, {"type": "Feature", "properties": {"id": 51, "object_type": "oks_connection_point", "flow_tph": 10.15}, "geometry": {"type": "Point", "coordinates": [37.421383379, 55.669044146]}}, {"type": "Feature", "properties": {"id": 52, "object_type": "oks_connection_point", "flow_tph": 14.76}, "geometry": {"type": "Point", "coordinates": [37.410828551, 55.668967146]}}, {"type": "Feature", "properties": {"id": 53, "object_type": "oks_connection_point", "flow_tph": 6.45}, "geometry": {"type": "Point", "coordinates": [37.417843987, 55.671642903]}}, {"type": "Feature", "properties": {"id": 54, "object_type": "oks_connection_point", "flow_tph": 4.21}, "geometry": {"type": "Point", "coordinates": [37.418797586, 55.671655192]}}, {"type": "Feature", "properties": {"id": 55, "object_type": "oks_connection_point", "flow_tph": 14.82}, "geometry": {"type": "Point", "coordinates": [37.41621229, 55.666373637]}}, {"type": "Feature", "properties": {"id": 56, "object_type": "oks_connection_point", "flow_tph": 12.93}, "geometry": {"type": "Point", "coordinates": [37.415682565, 55.667678856]}}, {"type": "Feature", "properties": {"id": 57, "object_type": "oks_connection_point", "flow_tph": 7.72}, "geometry": {"type": "Point", "coordinates": [37.416636066, 55.667691161]}}, {"type": "Feature", "properties": {"id": 58, "object_type": "oks_connection_point", "flow_tph": 17.74}, "geometry": {"type": "Point", "coordinates": [37.421118013, 55.671685064]}}, {"type": "Feature", "properties": {"id": 59, "object_type": "oks_connection_point", "flow_tph": 12.68}, "geometry": {"type": "Point", "coordinates": [37.418956256, 55.667721073]}}, {"type": "Feature", "properties": {"id": 60, "object_type": "heat_network", "diameter": 500}, "geometry": {"type": "LineString", "coordinates": [[37.410232033, 55.665640287], [37.421832383, 55.665790009]]}}, {"type": "Feature", "properties": {"id": 61, "object_type": "heat_network", "diameter": 400}, "geometry": {"type": "LineString", "coordinates": [[37.410438614, 55.665642963], [37.410372155, 55.667282174]]}}, {"type": "Feature", "properties": {"id": 62, "object_type": "heat_network", "diameter": 400}, "geometry": {"type": "LineString", "coordinates": [[37.410372155, 55.667282174], [37.41030569, 55.668921384]]}}, {"type": "Feature", "properties": {"id": 63, "object_type": "heat_network", "diameter": 300}, "geometry": {"type": "LineString", "coordinates": [[37.41030569, 55.668921384], [37.410239217, 55.670560593]]}}, {"type": "Feature", "properties": {"id": 64, "object_type": "heat_network", "diameter": 300}, "geometry": {"type": "LineString", "coordinates": [[37.410239217, 55.670560593], [37.410172738, 55.672199802]]}}, {"type": "Feature", "properties": {"id": 65, "object_type": "heat_network", "diameter": 400}, "geometry": {"type": "LineString", "coordinates": [[37.419718887, 55.665762813], [37.419652816, 55.66740203]]}}, {"type": "Feature", "properties": {"id": 66, "object_type": "heat_network", "diameter": 400}, "geometry": {"type": "LineString", "coordinates": [[37.419652816, 55.66740203], [37.419586738, 55.669041248]]}}, {"type": "Feature", "properties": {"id": 67, "object_type": "heat_network", "diameter": 300}, "geometry": {"type": "LineString", "coordinates": [[37.419586738, 55.669041248], [37.419520653, 55.670680464]]}}, {"type": "Feature", "properties": {"id": 68, "object_type": "heat_network", "diameter": 300}, "geometry": {"type": "LineString", "coordinates": [[37.419520653, 55.670680464], [37.419454562, 55.672319681]]}}, {"type": "Feature", "properties": {"id": 69, "object_type": "heat_chamber"}, "geometry": {"type": "Point", "coordinates": [37.410372155, 55.667282174]}}, {"type": "Feature", "properties": {"id": 70, "object_type": "heat_chamber"}, "geometry": {"type": "Point", "coordinates": [37.41030569, 55.668921384]}}, {"type": "Feature", "properties": {"id": 71, "object_type": "heat_chamber"}, "geometry": {"type": "Point", "coordinates": [37.410239217, 55.670560593]}}, {"type": "Feature", "properties": {"id": 72, "object_type": "heat_chamber"}, "geometry": {"type": "Point", "coordinates": [37.410172738, 55.672199802]}}, {"type": "Feature", "properties": {"id": 73, "object_type": "heat_chamber"}, "geometry": {"type": "Point", "coordinates": [37.419652816, 55.66740203]}}, {"type": "Feature", "properties": {"id": 74, "object_type": "heat_chamber"}, "geometry": {"type": "Point", "coordinates": [37.419586738, 55.669041248]}}, {"type": "Feature", "properties": {"id": 75, "object_type": "heat_chamber"}, "geometry": {"type": "Point", "coordinates": [37.419520653, 55.670680464]}}, {"type": "Feature", "properties": {"id": 76, "object_type": "heat_chamber"}, "geometry": {"type": "Point", "coordinates": [37.419454562, 55.672319681]}}, {"type": "Feature", "properties": {"id": 77, "object_type": "source", "name": "ТЭЦ-синт"}, "geometry": {"type": "Point", "coordinates": [37.409755309, 55.665634111]}}, {"type": "Feature", "properties": {"id": 78, "object_type": "restriction", "restriction_type": "water"}, "geometry": {"type": "MultiPolygon", "coordinates": [[[[37.406178196, 55.66367354], [37.408561697, 55.663704472], [37.408149633, 55.67385409], [37.405765516, 55.673823146], [37.406178196, 55.66367354]]]]}}, {"type": "Feature", "properties": {"id": 79, "object_type": "restriction", "restriction_type": "railway"}, "geometry": {"type": "MultiPolygon", "coordinates": [[[[37.40836693, 55.672419038], [37.423148019, 55.672609828], [37.423129952, 55.673058929], [37.408348694, 55.672868136], [37.40836693, 55.672419038]]]]}}, {"type": "Feature", "properties": {"id": 80, "object_type": "restriction", "restriction_type": "road"}, "geometry": {"type": "MultiPolygon", "coordinates": [[[[37.417342199, 55.665166025], [37.417501105, 55.665168074], [37.417207401, 55.672443495], [37.417048465, 55.672441446], [37.417342199, 55.665166025]]]]}}, {"type": "Feature", "properties": {"id": 81, "object_type": "restriction", "restriction_type": "gas_pipeline"}, "geometry": {"type": "LineString", "coordinates": [[37.408851963, 55.66830493], [37.422995822, 55.668487486]]}}]}